NORAD_CAT_ID,OBJECT_NAME,OBJECT_TYPE,EPOCH,MEAN_MOTION,ECCENTRICITY,INCLINATION,RA_OF_ASC_NODE,ARG_OF_PERICENTER,MEAN_ANOMALY,BSTAR,MEAN_MOTION_DOT,MEAN_MOTION_DDOT,TLE_LINE0,TLE_LINE1,TLE_LINE2,SEMIMAJOR_AXIS,PERIOD,APOGEE,PERIGEE,DECAYED
51777.0,STARLINK-3625,PAYLOAD,2022-11-07 10:39:08,15.08814843,0.0002037,53.2199,48.0433,28.8755,331.235,0.00013316,1.83e-05,0.0,0 STARLINK-3625,1 51777U 22017K   22311.44384690  .00001830  00000-0  13316-3 0  9995,2 51777  53.2199  48.0433 0002037  28.8755 331.2350 15.08814843 40156,6917.956999999999,95.439,541.231,538.413,0.0
51777.0,STARLINK-3625,PAYLOAD,2022-11-07 18:36:04,15.08821507,0.0002013,53.2199,46.5554,29.1751,330.9353,0.00017094,2.432e-05,0.0,0 STARLINK-3625,1 51777U 22017K   22311.77504649  .00002432  00000-0  17094-3 0  9995,2 51777  53.2199  46.5554 0002013  29.1751 330.9353 15.08821507 38732,6917.937,95.439,541.194,538.409,0.0
51777.0,STARLINK-3625,PAYLOAD,2022-11-08 05:43:45,15.08835379,0.0001831,53.2203,44.477,19.2608,340.8453,0.00023731,3.4899999999999995e-05,0.0,0 STARLINK-3625,1 51777U 22017K   22312.23871708  .00003490  00000-0  23731-3 0  9990,2 51777  53.2203  44.4770 0001831  19.2608 340.8453 15.08835379 40278,6917.895,95.438,541.026,538.493,0.0
51777.0,STARLINK-3625,PAYLOAD,2022-11-08 08:54:30,15.08852103,0.0001657,53.2205,43.8795,38.4179,321.6931,0.00022475,3.292e-05,0.0,0 STARLINK-3625,1 51777U 22017K   22312.37118712  .00003292  00000-0  22475-3 0  9998,2 51777  53.2205  43.8795 0001657  38.4179 321.6931 15.08852103 40296,6917.843000000003,95.437,540.855,538.562,0.0
51777.0,STARLINK-3625,PAYLOAD,2022-11-09 13:31:30,15.08793494,0.0002335,53.2203,38.5283,34.8568,325.2577,-0.00031626,-5.312e-05,0.0,0 STARLINK-3625,1 51777U 22017K   22313.56354621 -.00005312  00000-0 -31626-3 0  9996,2 51777  53.2203  38.5283 0002335  34.8568 325.2577 15.08793494 39003,6918.023,95.44,541.503,538.2719999999998,0.0
51777.0,STARLINK-3625,PAYLOAD,2022-11-09 15:06:53,15.08796007,0.0002321,53.2202,38.231,35.5036,324.611,-0.00029329,-4.947e-05,0.0,0 STARLINK-3625,1 51777U 22017K   22313.62978528 -.00004947  00000-0 -29329-3 0  9991,2 51777  53.2202  38.2310 0002321  35.5036 324.6110 15.08796007 40486,6918.015,95.44,541.486,538.274,0.0
51777.0,STARLINK-3625,PAYLOAD,2022-11-09 23:03:48,15.08806562,0.0002273,53.2206,36.7446,34.9337,325.1804,-0.00022415,-3.851e-05,0.0,0 STARLINK-3625,1 51777U 22017K   22313.96098161 -.00003851  00000-0 -22415-3 0  9996,2 51777  53.2206  36.7446 0002273  34.9337 325.1804 15.08806562 40536,6917.983,95.44,541.42,538.275,0.0
51777.0,STARLINK-3625,PAYLOAD,2022-11-10 11:46:52,15.08836397,0.000227,53.2196,34.3661,29.1568,330.955,-0.00021315,-3.679e-05,0.0,0 STARLINK-3625,1 51777U 22017K   22314.49088483 -.00003679  00000-0 -21315-3 0  9997,2 51777  53.2196  34.3661 0002270  29.1568 330.9550 15.08836397 39142,6917.891,95.438,541.327,538.186,0.0
51777.0,STARLINK-3625,PAYLOAD,2022-11-10 14:57:38,15.08841687,0.0002527,53.2193,33.7718,25.666,334.4457,-0.00022169,-3.815e-05,0.0,0 STARLINK-3625,1 51777U 22017K   22314.62336171 -.00003815  00000-0 -22169-3 0  9992,2 51777  53.2193  33.7718 0002527  25.6660 334.4457 15.08841687 40633,6917.875,95.437,541.488,537.992,0.0
51777.0,STARLINK-3625,PAYLOAD,2022-11-11 05:16:05,15.08836991,0.000239,53.2196,31.0954,26.5706,333.5409,1.6791e-05,-2.1e-07,0.0,0 STARLINK-3625,1 51777U 22017K   22315.21951380 -.00000021  00000-0  16791-4 0  9993,2 51777  53.2196  31.0954 0002390  26.5706 333.5409 15.08836991 40727,6917.89,95.438,541.408,538.101,0.0
51777.0,STARLINK-3625,PAYLOAD,2022-11-11 11:37:38,15.08846025,0.0002289,53.2198,29.9054,36.8955,323.2194,8.0613e-05,9.95e-06,0.0,0 STARLINK-3625,1 51777U 22017K   22315.48446793  .00000995  00000-0  80613-4 0  9992,2 51777  53.2198  29.9054 0002289  36.8955 323.2194 15.08846025 40763,6917.861999999999,95.437,541.31,538.143,0.0
51777.0,STARLINK-3625,PAYLOAD,2022-11-11 14:48:24,15.08833169,0.0002148,53.22,29.3107,33.1396,326.9731,7.1629e-05,8.52e-06,0.0,0 STARLINK-3625,1 51777U 22017K   22315.61695587  .00000852  00000-0  71629-4 0  9993,2 51777  53.2200  29.3107 0002148  33.1396 326.9731 15.08833169 40787,6917.901,95.438,541.252,538.28,0.0
51777.0,STARLINK-3625,PAYLOAD,2022-11-12 11:28:26,15.08836127,0.0002406,53.2197,25.4455,33.8755,326.2390000000001,0.00027748,4.13e-05,0.0,0 STARLINK-3625,1 51777U 22017K   22316.47808263  .00004130  00000-0  27748-3 0  9990,2 51777  53.2197  25.4455 0002406  33.8755 326.2390 15.08836127 39440,6917.892,95.438,541.422,538.0930000000002,0.0
51777.0,STARLINK-3625,PAYLOAD,2022-11-12 14:39:12,15.08845075,0.0002475,53.2188,24.8511,32.8218,327.2927,0.00029135,4.352e-05,0.0,0 STARLINK-3625,1 51777U 22017K   22316.61056142  .00004352  00000-0  29135-3 0  9995,2 51777  53.2188  24.8511 0002475  32.8218 327.2927 15.08845075 39466,6917.865,95.437,541.442,538.018,0.0
51777.0,STARLINK-3625,PAYLOAD,2022-11-13 11:19:13,15.08839812,0.0002424,53.2189,20.9849,33.0051,327.1092,-6.4645e-05,-1.317e-05,0.0,0 STARLINK-3625,1 51777U 22017K   22317.47168043 -.00001317  00000-0 -64645-4 0  9990,2 51777  53.2189  20.9849 0002424  33.0051 327.1092 15.08839812 41063,6917.880999999999,95.438,541.423,538.069,0.0
51777.0,STARLINK-3625,PAYLOAD,2022-11-13 16:05:22,15.08840114,0.000249,53.2192,20.0927,28.6662,331.4466,-2.3985e-05,-6.7e-06,0.0,0 STARLINK-3625,1 51777U 22017K   22317.67040280 -.00000670  00000-0 -23985-4 0  9997,2 51777  53.2192  20.0927 0002490  28.6662 331.4466 15.08840114 39625,6917.88,95.438,541.4680000000002,538.0219999999998,0.0
51777.0,STARLINK-3625,PAYLOAD,2022-11-14 09:34:38,15.08828961,0.0002482,53.2198,16.8228,28.8169,331.296,-8.4066e-05,-1.626e-05,0.0,0 STARLINK-3625,1 51777U 22017K   22318.39905536 -.00001626  00000-0 -84066-4 0  9990,2 51777  53.2198  16.8228 0002482  28.8169 331.2960 15.08828961 41203,6917.9140000000025,95.438,541.496,538.062,0.0
51777.0,STARLINK-3625,PAYLOAD,2022-11-14 11:10:01,15.08827331,0.0002491,53.2196,16.5254,28.9459,331.1671,-9.8641e-05,-1.857e-05,0.0,0 STARLINK-3625,1 51777U 22017K   22318.46529714 -.00001857  00000-0 -98641-4 0  9998,2 51777  53.2196  16.5254 0002491  28.9459 331.1671 15.08827331 39744,6917.919,95.438,541.507,538.061,0.0
51777.0,STARLINK-3625,PAYLOAD,2022-11-14 15:56:10,15.08830606,0.0002468,53.2197,15.6332,30.7451,329.3686,-6.8444e-05,-1.377e-05,0.0,0 STARLINK-3625,1 51777U 22017K   22318.66401538 -.00001377  00000-0 -68444-4 0  9998,2 51777  53.2197  15.6332 0002468  30.7451 329.3686 15.08830606 39776,6917.909000000002,95.438,541.481,538.067,0.0
51777.0,STARLINK-3625,PAYLOAD,2022-11-14 20:42:20,15.08834947,0.0002481,53.2197,14.7413,30.8107,329.3031,-4.3165e-05,-9.75e-06,0.0,0 STARLINK-3625,1 51777U 22017K   22318.86273264 -.00000975  00000-0 -43165-4 0  9999,2 51777  53.2197  14.7413 0002481  30.8107 329.3031 15.08834947 41274,6917.896,95.438,541.477,538.045,0.0
51777.0,STARLINK-3625,PAYLOAD,2022-11-15 12:36:11,15.08835852,0.0002491,53.2197,11.7675,26.3682,333.7436,0.00012662,1.727e-05,0.0,0 STARLINK-3625,1 51777U 22017K   22319.52513080  .00001727  00000-0  12662-3 0  9997,2 51777  53.2197  11.7675 0002491  26.3682 333.7436 15.08835852 39901,6917.893,95.438,541.481,538.035,0.0
51777.0,STARLINK-3625,PAYLOAD,2022-11-16 12:26:59,15.08828156,0.0002516,53.2197,7.3074,30.644,329.4699,0.00014976,2.095e-05,0.0,0 STARLINK-3625,1 51777U 22017K   22320.51874071  .00002095  00000-0  14976-3 0  9997,2 51777  53.2197   7.3074 0002516  30.6440 329.4699 15.08828156 41526,6917.917,95.438,541.5219999999998,538.0409999999998,0.0
51777.0,STARLINK-3625,PAYLOAD,2022-11-17 02:45:27,15.08839148,0.0002491,53.2199,4.6311,29.6067,330.5066,0.0001338,1.842e-05,0.0,0 STARLINK-3625,1 51777U 22017K   22321.11489632  .00001842  00000-0  13380-3 0  9996,2 51777  53.2199   4.6311 0002491  29.6067 330.5066 15.08839148 41611,6917.8830000000025,95.438,541.471,538.025,0.0
51777.0,STARLINK-3625,PAYLOAD,2022-11-17 09:06:58,15.08851131,0.0002519,53.2197,3.4419,33.4113,326.7038,0.00012767,1.745e-05,0.0,0 STARLINK-3625,1 51777U 22017K   22321.37984884  .00001745  00000-0  12767-3 0  9993,2 51777  53.2197   3.4419 0002519  33.4113 326.7038 15.08851131 40184,6917.846,95.437,541.4540000000002,537.969,0.0
51777.0,STARLINK-3625,PAYLOAD,2022-11-17 10:42:21,15.08853108,0.0002566999999999,53.2198,3.1447,31.8743,328.2404,0.0001431,1.991e-05,0.0,0 STARLINK-3625,1 51777U 22017K   22321.44608724  .00001991  00000-0  14310-3 0  9996,2 51777  53.2198   3.1447 0002567  31.8743 328.2404 15.08853108 41661,6917.84,95.437,541.481,537.93,0.0
51777.0,STARLINK-3625,PAYLOAD,2022-11-18 02:36:14,15.08797365,0.000295,53.2202,0.1726,35.9708,324.1482,0.00066365,0.00010278,0.0,0 STARLINK-3625,1 51777U 22017K   22322.10850246  .00010278  00000-0  66365-3 0  9993,2 51777  53.2202   0.1726 0002950  35.9708 324.1482 15.08797365 41760,6918.011,95.44,541.9169999999998,537.835,0.0
51777.0,STARLINK-3625,PAYLOAD,2022-11-18 12:08:32,15.08849571,0.000266,53.2191,358.3866,30.7651,329.3497,0.00015694,2.211e-05,0.0,0 STARLINK-3625,1 51777U 22017K   22322.50592842  .00002211  00000-0  15694-3 0  9999,2 51777  53.2191 358.3866 0002660  30.7651 329.3497 15.08849571 41825,6917.851,95.437,541.556,537.876,0.0
51777.0,STARLINK-3625,PAYLOAD,2022-11-18 13:43:55,15.08851984,0.0002711,53.2192,358.0898,30.8353,329.2798,0.00016094,2.275e-05,0.0,0 STARLINK-3625,1 51777U 22017K   22322.57216690  .00002275  00000-0  16094-3 0  9995,2 51777  53.2192 358.0898 0002711  30.8353 329.2798 15.08851984 40367,6917.844,95.437,541.5840000000002,537.8330000000002,0.0
51777.0,STARLINK-3625,PAYLOAD,2022-11-19 07:13:10,15.08847012,0.0002732,53.2195,354.8186,35.6244,324.493,4.2944e-05,3.95e-06,0.0,0 STARLINK-3625,1 51777U 22017K   22323.30081089  .00000395  00000-0  42944-4 0  9994,2 51777  53.2195 354.8186 0002732  35.6244 324.4930 15.08847012 40473,6917.859,95.437,541.614,537.8340000000002,0.0
